[{"OBJECT_NAME":"STARLINK-3132","OBJECT_ID":"2021-104BB","EPOCH":"2026-03-09T17:23:47.100480","MEAN_MOTION":15.08833424,"ECCENTRICITY":0.00013012,"INCLINATION":53.2176,"RA_OF_ASC_NODE":218.9754,"ARG_OF_PERICENTER":96.0867,"MEAN_ANOMALY":264.0274,"EPHEMERIS_TYPE":0,"CLASSIFICATION_TYPE":"U","NORAD_CAT_ID":49457,"ELEMENT_SET_NO":999,"REV_AT_EPOCH":23878,"BSTAR":1.987576e-6,"MEAN_MOTION_DOT":-2.56e-6,"MEAN_MOTION_DDOT":0},{"OBJECT_NAME":"COSMOS 1275 DEB","OBJECT_ID":"1981-053RH","EPOCH":"2026-03-08T19:02:02.535360","MEAN_MOTION":15.08606043,"ECCENTRICITY":0.00097404,"INCLINATION":83.3308,"RA_OF_ASC_NODE":196.5935,"ARG_OF_PERICENTER":282.896,"MEAN_ANOMALY":77.1182,"EPHEMERIS_TYPE":0,"CLASSIFICATION_TYPE":"U","NORAD_CAT_ID":42145,"ELEMENT_SET_NO":999,"REV_AT_EPOCH":64889,"BSTAR":0.0090120528,"MEAN_MOTION_DOT":0.00143721,"MEAN_MOTION_DDOT":0}]
